STARLINK-35320          
1 65834U 25221M   25362.19901262  .00033322  00000+0  11314-2 0  9990
2 65834  53.1567  60.7159 0001088  67.1117 292.9998 15.30220635 13787
STARLINK-35349          
1 65835U 25221N   25362.14003104  .00029396  00000+0  10002-2 0  9993
2 65835  53.1578  61.0571 0001580  79.6735 280.4444 15.30216582 13776
STARLINK-35356          
1 65836U 25221P   25361.89448977  .00026686  00000+0  90955-3 0  9991
2 65836  53.1610  61.6518 0001332  90.3406 269.7748 15.30212723 13748
STARLINK-35314          
1 65837U 25221Q   25362.18423918  .00032369  00000+0  11002-2 0  9993
2 65837  53.1583  60.6186 0001567  85.3823 274.7357 15.30201480 13789
STARLINK-35324          
1 65838U 25221R   25362.14319815  .00028045  00000+0  95513-3 0  9996
2 65838  53.1584  61.0752 0001495  81.1061 279.0109 15.30210399 13774
STARLINK-35102          
1 65839U 25221S   25361.46260992  .00016580  00000+0  57091-3 0  9992
2 65839  53.1594  63.9351 0001175  96.4763 263.6371 15.30185550 13674
STARLINK-35364          
1 65840U 25221T   25361.59006904  .00028924  00000+0  98606-3 0  9991
2 65840  53.1594  63.3069 0000999  57.5223 302.5875 15.30161575 13693
STARLINK-35238          
1 65841U 25221U   25362.17681745  .00087371  00000+0  15569-2 0  9996
2 65841  53.1608  53.4433 0001814  91.0369 269.0848 15.49391946 13881
STARLINK-35298          
1 65842U 25221V   25361.58691106  .00056296  00000+0  18987-2 0  9992
2 65842  53.1591  63.2853 0001474  67.5442 292.5715 15.30195749 13696
STARLINK-35301          
1 65843U 25221W   25361.57741237  .00030063  00000+0  10222-2 0  9991
2 65843  53.1605  63.2251 0001430  78.9221 281.1940 15.30225844 13692
STARLINK-35148          
1 65844U 25221X   25362.18740250  .00036297  00000+0  12306-2 0  9994
2 65844  53.1592  60.6406 0001382  88.5027 271.6132 15.30228871 13788
STARLINK-35302          
1 65845U 25221Y   25362.16840933  .00042699  00000+0  14444-2 0  9990
2 65845  53.1598  60.5137 0001270 100.6938 259.4206 15.30224442 13784
STARLINK-35290          
1 65846U 25221Z   25362.16102220  .00026880  00000+0  91585-3 0  9997
2 65846  53.1596  60.4677 0001707  89.0628 271.0569 15.30219146 13789
STARLINK-35262          
1 65847U 25221AA  25361.49532638  .00027131  00000+0  92518-3 0  9990
2 65847  53.1606  64.1402 0001351  70.1730 289.9416 15.30187423 15029
STARLINK-35308          
1 65848U 25221AB  25362.16313214  .00029709  00000+0  10105-2 0  9997
2 65848  53.1617  60.4820 0001424  90.3687 269.7477 15.30223088 15134
STARLINK-35231          
1 65849U 25221AC  25361.89037352  .00031613  00000+0  10740-2 0  9995
2 65849  53.1641  62.3354 0000925 256.1917 103.8981 15.30227905 15082
STARLINK-35252          
1 65850U 25221AD  25361.88405052  .00027546  00000+0  93852-3 0  9998
2 65850  53.1615  62.2974 0001615  90.0427 270.0759 15.30207006 15080
STARLINK-35208          
1 65854U 25223A   25362.13001698  .00032171  00000+0  10937-2 0  9993
2 65854  53.1608 266.2747 0001440  93.8353 266.2813 15.30198548 13250
STARLINK-35200          
1 65855U 25223B   25362.16061610  .00028201  00000+0  96054-3 0  9991
2 65855  53.1585 266.4647 0001398  91.4252 268.6909 15.30204501 13259
STARLINK-35459          
1 65856U 25223C   25361.97944528  .00031150  00000+0  10588-2 0  9992
2 65856  53.1585 267.4679 0001266  96.6181 263.4964 15.30218109 13228
STARLINK-35489          
1 65857U 25223D   25362.12379632  .00016421  00000+0  56534-3 0  9995
2 65857  53.1609 266.9416 0001374  98.2447 261.8710 15.30198183 13244
STARLINK-35199          
1 65858U 25223E   25362.01521272  .00052127  00000+0  17579-2 0  9991
2 65858  53.1600 266.9774 0001167  95.6821 264.4312 15.30235618 13231
STARLINK-35408          
1 65859U 25223F   25362.12273625  .00024078  00000+0  82261-3 0  9995
2 65859  53.1585 266.9387 0001325 114.6273 245.4865 15.30193811 13244
STARLINK-35303          
1 65860U 25223G   25362.03842904  .00006302  00000+0  22459-3 0  9992
2 65860  53.1573 267.1237 0001352  81.2850 278.8304 15.30219537 13231
STARLINK-35258          
1 65861U 25223H   25362.04265042  .00030368  00000+0  10332-2 0  9991
2 65861  53.1583 267.1444 0001179  82.4379 277.6755 15.30202226 13233
STARLINK-35386          
1 65862U 25223J   25362.12168514  .00025853  00000+0  88163-3 0  9998
2 65862  53.1604 266.9309 0001161  90.4808 269.6326 15.30212832 13242
STARLINK-35469          
1 65863U 25223K   25362.11640721  .00029924  00000+0  10177-2 0  9995
2 65863  53.1591 266.9001 0000984 115.9528 244.1574 15.30221671 13245
STARLINK-35471          
1 65864U 25223L   25362.13845473  .00034431  00000+0  11692-2 0  9991
2 65864  53.1603 266.3211 0001389 109.4802 250.6348 15.30199882 13250
STARLINK-35475          
1 65865U 25223M   25362.12790316  .00034460  00000+0  11698-2 0  9994
2 65865  53.1613 266.2601 0001049  84.9427 275.1693 15.30212238 13253
STARLINK-35312          
1 65866U 25223N   25362.11429325  .00047471  00000+0  16030-2 0  9994
2 65866  53.1586 266.8809 0000630 127.9770 232.1288 15.30235204 13243
STARLINK-35456          
1 65867U 25223P   25362.14689931  .00047536  00000+0  16054-2 0  9997
2 65867  53.1596 266.3732 0001041 105.0171 255.0945 15.30230362 13259
STARLINK-35450          
1 65868U 25223Q   25362.04158890  .00016826  00000+0  57955-3 0  9996
2 65868  53.1583 267.1410 0001529  75.4871 284.6300 15.30165792 13231
STARLINK-35441          
1 65869U 25223R   25362.11323731  .00035711  00000+0  12113-2 0  9993
2 65869  53.1591 266.8784 0000720 167.9524 192.1495 15.30218770 13249
STARLINK-35433          
1 65870U 25223S   25362.01204803  .00035706  00000+0  12116-2 0  9999
2 65870  53.1610 266.9568 0001263  99.1469 260.9675 15.30208224 13248
STARLINK-35465          
1 65871U 25223T   25362.02470919  .00021689  00000+0  74231-3 0  9996
2 65871  53.1606 267.0369 0001214  76.9721 283.1415 15.30198750 13235
STARLINK-34108          
1 65872U 25223U   25362.14164338  .00047153  00000+0  15928-2 0  9996
2 65872  53.1597 266.3407 0001820  98.0043 262.1164 15.30226104 13250
STARLINK-35423          
1 65873U 25223V   25362.13106366  .00039714  00000+0  13450-2 0  9995
2 65873  53.1616 266.2751 0000665 141.3720 218.7328 15.30221312 13259
STARLINK-35425          
1 65874U 25223W   25361.97205943  .00014428  00000+0  49827-3 0  9991
2 65874  53.1583 267.4191 0001419  89.5524 270.5639 15.30202602 13226
STARLINK-34688          
1 65875U 25223X   25361.93101410  .00029483  00000+0  10031-2 0  9993
2 65875  53.1615 267.8709 0001067  93.1918 266.9205 15.30216731 13214
STARLINK-34438          
1 65876U 25223Y   25362.11113044  .00024214  00000+0  82675-3 0  9992
2 65876  53.1580 266.8606 0001322  96.9047 263.2104 15.30210088 13249
STARLINK-35462          
1 65877U 25223Z   25361.93722928  .00033477  00000+0  11360-2 0  9992
2 65877  53.1604 267.1961 0001349  81.6281 278.4873 15.30238122 13223
STARLINK-35453          
1 65878U 25223AA  25362.11746024  .00026711  00000+0  91045-3 0  9999
2 65878  53.1593 266.8996 0000757 108.2118 251.8965 15.30209947 13244
STARLINK-35418          
1 65879U 25223AB  25361.92995909  .00023073  00000+0  78866-3 0  9990
2 65879  53.1634 267.8585 0000596 125.3000 234.8057 15.30202586 13219
STARLINK-35445          
1 65880U 25223AC  25362.03948470  .00026618  00000+0  90730-3 0  9998
2 65880  53.1593 267.1214 0001269  88.7477 271.3669 15.30211233 13231
STARLINK-35464          
1 65881U 25223AD  25362.11957168  .00035528  00000+0  12054-2 0  9994
2 65881  53.1598 266.9112 0000930 104.6918 255.4186 15.30215184 13240
STARLINK-35270          
1 65882U 25224A   25362.10184780  .00033646  00000+0  11422-2 0  9994
2 65882  53.1615 343.8893 0002226 130.8500 229.2694 15.30220612 13863
STARLINK-35367          
1 65883U 25224B   25361.69729914  .00043436  00000+0  14690-2 0  9990
2 65883  53.1623 345.6282 0001544  98.4945 261.6231 15.30225022 13800
STARLINK-35384          
1 65884U 25224C   25361.25910755 -.00044459  00000+0 -15018-2 0  9991
2 65884  53.1601 347.8726 0001298  69.8340 290.2800 15.30116619 13734
STARLINK-35415          
1 65885U 25224D   25361.36439085  .00028830  00000+0  98137-3 0  9993
2 65885  53.1636 347.1037 0000909 100.6894 259.4209 15.30212354 13707
STARLINK-35413          
1 65886U 25224E   25361.22954010  .00040306  00000+0  13654-2 0  9991
2 65886  53.1630 347.6838 0001409  95.9592 264.1569 15.30205434 13683
STARLINK-35332          
1 65887U 25224F   25362.13445014  .00023335  00000+0  79725-3 0  9997
2 65887  53.1623 343.3799 0001261  95.1159 264.9985 15.30210849 13903
STARLINK-35362          
1 65888U 25224G   25362.18087280  .00031437  00000+0  10677-2 0  9992
2 65888  53.1610 343.6728 0001449 108.7564 251.3594 15.30239903 13878
STARLINK-35193          
1 65889U 25224H   25362.19037985  .00023435  00000+0  80075-3 0  9990
2 65889  53.1606 343.7228 0001344  93.9845 266.1310 15.30204427 13908
STARLINK-34542          
1 65890U 25224J   25361.66469854  .00030546  00000+0  10392-2 0  9992
2 65890  53.1607 346.1374 0001542  78.3328 281.7845 15.30200090 13844
STARLINK-34791          
1 65891U 25224K   25362.13139630  .00029572  00000+0  10059-2 0  9999
2 65891  53.1606 344.0657 0001421 111.9266 248.1885 15.30220471 13910
STARLINK-34853          
1 65892U 25224L   25362.16083176  .00055558  00000+0  18719-2 0  9990
2 65892  53.1622 343.5450 0001240 111.0991 249.0142 15.30235730 13852
STARLINK-34921          
1 65893U 25224M   25362.11873198  .00034431  00000+0  11687-2 0  9991
2 65893  53.1599 343.9869 0001231  97.1784 262.9357 15.30214802 13914
STARLINK-34672          
1 65894U 25224N   25362.17666036  .00047033  00000+0  15880-2 0  9990
2 65894  53.1609 343.6355 0001130  70.3684 289.7439 15.30243757 13924
STARLINK-34898          
1 65895U 25224P   25361.38022737  .00033878  00000+0  11498-2 0  9990
2 65895  53.1617 347.1938 0001168  82.9478 277.1656 15.30226751 13805
